25162,GLOBALSTAR M001,1998,116.3,-1.0,-,52.01,Inactive,0,LEO,USA,Globalstar,Unknown,Unknown,Unknown,1 25162U 98008A   25143.43748843 -.00000081  00000+0  11806-3 0  9995,2 25162  52.0053  45.2586 0001045 174.3063 357.9811 12.38213564240642,12.38213564,0.0001045,LEO
25163,GLOBALSTAR M004,1998,113.98,-1.0,-,52.0,Inactive,0,LEO,USA,Globalstar,Unknown,Unknown,Unknown,1 25163U 98008B   25143.41169670 -.00000071  00000+0  18276-3 0  9996,2 25163  51.9978 129.7343 0002904 238.2325 277.7335 12.63396256258559,12.63396256,0.0002904,LEO
25164,GLOBALSTAR M002,1998,123.98,-1.0,-,52.0,Inactive,0,LEO,USA,Globalstar,Unknown,Unknown,Unknown,1 25164U 98008C   25143.46683624 -.00000076  00000+0  40741-5 0  9991,2 25164  52.0025 302.1864 0002187 107.2408 252.8652 11.61509947181191,11.61509947,0.0002187,LEO
25165,GLOBALSTAR M003,1998,118.8,-1.0,-,52.0,Inactive,0,LEO,USA,Globalstar,Unknown,Unknown,Unknown,1 25165U 98008D   25143.64616679 -.00000120  00000+0 -32242-3 0  9994,2 25165  51.9989 236.4923 0007852 241.0249 262.0955 12.12076255230246,12.12076255,0.0007852,LEO
25306,GLOBALSTAR M014,1998,123.55,-1.0,-,51.98,Inactive,0,LEO,USA,Globalstar,Unknown,Unknown,Unknown,1 25306U 98023A   25143.61598899 -.00000068  00000+0  17088-3 0  9999,2 25306  51.9826 225.5545 0000669 290.4150 218.0280 11.65480760188308,11.6548076,6.69e-05,LEO
25307,GLOBALSTAR M006,1998,124.33,-1.0,-,51.99,Inactive,0,LEO,USA,Globalstar,Unknown,Unknown,Unknown,1 25307U 98023B   25143.53652098 -.00000059  00000+0  34711-3 0  9995,2 25307  51.9944 277.3061 0003558  71.0452   8.7502 11.58175860213973,11.5817586,0.0003558,LEO
25308,GLOBALSTAR M015,1998,125.34,-1.0,-,51.98,Inactive,0,LEO,USA,Globalstar,Unknown,Unknown,Unknown,1 25308U 98023C   25143.36662588 -.00000092  00000+0 -41371-3 0  9990,2 25308  51.9850  15.0616 0013071  33.5818 137.2502 11.48858896191220,11.48858896,0.0013071,LEO
25309,GLOBALSTAR M008,1998,116.5,-1.0,-,52.0,Inactive,0,LEO,USA,Globalstar,Unknown,Unknown,Unknown,1 25309U 98023D   25143.57086367 -.00000098  00000+0 -13142-4 0  9991,2 25309  51.9973 269.4237 0003314 124.8553 297.5408 12.36069196234802,12.36069196,0.0003314,LEO
